{
"type": "FeatureCollection",
"name": "loc_3_regions_UTM13",
"crs": { "type": "name", "properties": { "name": "urn:ogc:def:crs:EPSG::32613" } },
"features": [
{ "type": "Feature", "properties": { "id": null, "label": "slip_face_1" }, "geometry": { "type": "MultiPolygon", "coordinates": [ [ [ [ 380259.932148936961312, 3631736.551144084893167 ], [ 380247.632147399650421, 3631726.543068299535662 ], [ 380246.791774623619858, 3631720.354868767783046 ], [ 380243.353885994816665, 3631714.319464286323637 ], [ 380243.735873619676568, 3631705.992134052794427 ], [ 380240.985562718182337, 3631697.664803818333894 ], [ 380238.006059239036404, 3631684.448031980078667 ], [ 380241.953264701529406, 3631670.569148257374763 ], [ 380256.927179618622176, 3631659.669768010266125 ], [ 380264.261342025361955, 3631650.603928369935602 ], [ 380268.465740833955351, 3631645.607486708555371 ], [ 380275.058858903357759, 3631631.555478781927377 ], [ 380279.133393574389629, 3631621.776595570612699 ], [ 380285.245195580180734, 3631615.664793564006686 ], [ 380287.893643117160536, 3631603.237462818156928 ], [ 380299.302340195688885, 3631593.458579608239233 ], [ 380321.304827419342473, 3631581.234975596424192 ], [ 380343.51104137575021, 3631571.659819118212909 ], [ 380360.827813726791646, 3631557.19522103574127 ], [ 380362.661354328971356, 3631552.102052696980536 ], [ 380344.52967504382832, 3631565.140563644934446 ], [ 380327.824082892737351, 3631571.863545852247626 ], [ 380312.238987775635906, 3631581.133112229872495 ], [ 380297.570662960177287, 3631587.244914236012846 ], [ 380284.430288646370173, 3631596.718207346275449 ], [ 380276.179355937754735, 3631612.608892563264817 ], [ 380263.038981624122243, 3631633.389019385445863 ], [ 380256.010409316513687, 3631641.02877189218998 ], [ 380244.70357560494449, 3631651.724425405263901 ], [ 380230.34084088972304, 3631659.669768013991416 ], [ 380225.145809182315134, 3631677.699583932757378 ], [ 380230.035250788379926, 3631689.312007741536945 ], [ 380235.535872594220564, 3631702.452382057439536 ], [ 380240.119724099175073, 3631712.842445469461381 ], [ 380242.258854801300913, 3631725.982819783035666 ], [ 380259.932148936961312, 3631736.551144084893167 ] ] ] ] } },
{ "type": "Feature", "properties": { "id": null, "label": "slip_face_2" }, "geometry": { "type": "MultiPolygon", "coordinates": [ [ [ [ 380472.062610244611278, 3631790.46233095228672 ], [ 380493.582838091359008, 3631784.804139251355082 ], [ 380487.738427422940731, 3631778.787834150251001 ], [ 380481.722122322884388, 3631771.568268029950559 ], [ 380483.097277773544192, 3631764.520596340764314 ], [ 380482.753488911082968, 3631756.441558063961565 ], [ 380485.160010951687582, 3631745.784103314392269 ], [ 380488.769794010790065, 3631739.080220489762723 ], [ 380486.707060834160075, 3631730.485498915892094 ], [ 380485.117037343501579, 3631718.366941501386464 ], [ 380486.964902481995523, 3631713.210108558647335 ], [ 380491.262263266660739, 3631710.201956009026617 ], [ 380500.587536172766704, 3631705.345938320737332 ], [ 380506.174105194397271, 3631706.119463262148201 ], [ 380513.479618530254811, 3631706.291357692796737 ], [ 380522.246234533260576, 3631705.174043890088797 ], [ 380529.819139206665568, 3631705.202692961320281 ], [ 380543.57069372094702, 3631706.119463260751218 ], [ 380544.487464021716733, 3631702.146791958715767 ], [ 380531.958269908092916, 3631700.007661255542189 ], [ 380522.179386698524468, 3631695.72939985152334 ], [ 380509.955782685021404, 3631698.479710754472762 ], [ 380505.371931180765387, 3631697.562940454110503 ], [ 380492.537146966555156, 3631692.367908747401088 ], [ 380483.369443956995383, 3631696.034989951178432 ], [ 380478.785592452157289, 3631704.591512761078775 ], [ 380478.785592452040873, 3631716.203936573117971 ], [ 380477.868822151387576, 3631741.567914899904281 ], [ 380474.507331047265325, 3631761.431271421257406 ], [ 380471.451430044253357, 3631769.376614031381905 ], [ 380472.062610244611278, 3631790.46233095228672 ] ] ] ] } },
{ "type": "Feature", "properties": { "id": null, "label": "slip_face_3" }, "geometry": { "type": "MultiPolygon", "coordinates": [ [ [ [ 380696.848003260442056, 3631854.507331195287406 ], [ 380699.813182200770825, 3631852.960281312 ], [ 380708.837639852659777, 3631848.834814958740026 ], [ 380715.799364326987416, 3631844.193665310740471 ], [ 380722.245405503723305, 3631840.841723897028714 ], [ 380729.722813271218911, 3631830.012374716810882 ], [ 380732.559071388794109, 3631821.503600360825658 ], [ 380732.81691303756088, 3631803.196843413170427 ], [ 380738.747270921710879, 3631794.945910705253482 ], [ 380746.998203630442731, 3631791.851810939144343 ], [ 380753.186403161205817, 3631780.764620111789554 ], [ 380757.569711163581815, 3631770.193112575914711 ], [ 380756.667265397903975, 3631760.395129988435656 ], [ 380752.283957396110054, 3631740.283481508493423 ], [ 380753.057482337986585, 3631750.597147394903004 ], [ 380749.447699276963249, 3631765.294121282640845 ], [ 380744.290866335271858, 3631779.475411872379482 ], [ 380741.454608216648921, 3631783.600878229830414 ], [ 380727.531159269972704, 3631792.1096525862813 ], [ 380725.210584446263965, 3631803.454685059841722 ], [ 380723.92137621215079, 3631819.183025535661727 ], [ 380715.670443501730915, 3631827.1761165978387 ], [ 380710.513610558176879, 3631833.364316129591316 ], [ 380688.081387256679591, 3631848.319131664466113 ], [ 380667.45405548484996, 3631859.922005786094815 ], [ 380659.203122776350938, 3631875.908187908586115 ], [ 380659.976647717528977, 3631887.511062030214816 ], [ 380639.349315946281422, 3631914.068751686718315 ], [ 380647.858090301393531, 3631914.326593333855271 ], [ 380651.467873361310922, 3631908.654077095910907 ], [ 380657.656072894460522, 3631899.371777798514813 ], [ 380665.907005601970013, 3631884.416962265037 ], [ 380683.440237608097959, 3631866.883730258326977 ], [ 380696.848003260442056, 3631854.507331195287406 ] ] ] ] } },
{ "type": "Feature", "properties": { "id": null, "label": "stoss_2" }, "geometry": { "type": "MultiPolygon", "coordinates": [ [ [ [ 380392.981622095801868, 3631795.97727729100734 ], [ 380471.752245299750939, 3631790.65929331863299 ], [ 380471.655554681725334, 3631769.387357425875962 ], [ 380474.556273212656379, 3631761.555417395196855 ], [ 380477.843754213477951, 3631741.733840771019459 ], [ 380478.778430184465833, 3631704.443492552265525 ], [ 380483.48404024518095, 3631695.934718198142946 ], [ 380492.508497895265464, 3631692.260474726557732 ], [ 380509.977269489667378, 3631698.384213844779879 ], [ 380522.224747728439979, 3631695.676876550540328 ], [ 380532.409492790931836, 3631700.060184553731233 ], [ 380544.592510618269444, 3631701.929536493960768 ], [ 380503.853530369407963, 3631645.913438650779426 ], [ 380495.08691436809022, 3631646.429121945053339 ], [ 380469.302749651134945, 3631654.680054652038962 ], [ 380421.344203282147646, 3631670.666236777789891 ], [ 380388.856155740853865, 3631693.35630172630772 ], [ 380380.08953973883763, 3631707.279750671703368 ], [ 380367.197457382106222, 3631727.391399149782956 ], [ 380361.524941143463366, 3631744.408947861287743 ], [ 380371.838607029058039, 3631774.318578931037337 ], [ 380392.981622095801868, 3631795.97727729100734 ] ] ] ] } },
{ "type": "Feature", "properties": { "id": null, "label": "stoss_3" }, "geometry": { "type": "MultiPolygon", "coordinates": [ [ [ [ 380528.654673802782781, 3631869.752218577079475 ], [ 380639.051186540804338, 3631914.362852309364825 ], [ 380659.972618941334076, 3631887.531205905135721 ], [ 380659.247439308965113, 3631875.783295855391771 ], [ 380667.478228139341809, 3631859.938120882492512 ], [ 380688.290883594483603, 3631848.26272879820317 ], [ 380710.989006095391233, 3631832.743884658906609 ], [ 380724.042239482805599, 3631819.400579419918358 ], [ 380725.130008930922486, 3631803.011519722640514 ], [ 380727.523101718863472, 3631792.109652579762042 ], [ 380741.543241281993687, 3631783.600878225639462 ], [ 380744.782376975403167, 3631778.476275487802923 ], [ 380749.471871932502836, 3631764.939589011948556 ], [ 380753.073597440496087, 3631750.701895559206605 ], [ 380752.324245153053198, 3631740.283481504302472 ], [ 380640.81579031329602, 3631669.022496272809803 ], [ 380628.82615372154396, 3631687.200332397595048 ], [ 380628.826153721776791, 3631713.113417934626341 ], [ 380638.10845301829977, 3631733.611828884109855 ], [ 380652.031901964219287, 3631753.723477360326797 ], [ 380661.314201262197457, 3631769.967501131817698 ], [ 380655.512764201324899, 3631784.277712549082935 ], [ 380641.976077725645155, 3631795.49382419930771 ], [ 380619.543854423623998, 3631803.615836083889008 ], [ 380581.254369823087472, 3631813.284897853154689 ], [ 380553.407471931306645, 3631826.434821857605129 ], [ 380541.804597809445113, 3631835.330358683131635 ], [ 380531.3620110990596, 3631853.121432335115969 ], [ 380528.654673802782781, 3631869.752218577079475 ] ] ] ] } },
{ "type": "Feature", "properties": { "id": null, "label": "slip_gradient_2" }, "geometry": { "type": "MultiPolygon", "coordinates": [ [ [ [ 380509.751658048131503, 3631706.30881571630016 ], [ 380506.850939517607912, 3631706.091261826921254 ], [ 380500.469358750386164, 3631705.366082194261253 ], [ 380487.198571473767515, 3631712.980468336492777 ], [ 380485.168068502563983, 3631718.346797620411962 ], [ 380493.580152241047472, 3631717.331546132918447 ], [ 380502.427343759336509, 3631715.083489272743464 ], [ 380509.751658048131503, 3631706.30881571630016 ] ] ] ] } },
{ "type": "Feature", "properties": { "id": null, "label": "zoi_2_1" }, "geometry": { "type": "MultiPolygon", "coordinates": [ [ [ [ 380558.628765286237467, 3631741.044920121785253 ], [ 380560.659268257440999, 3631724.510824497789145 ], [ 380556.88833416759735, 3631720.739890409167856 ], [ 380551.086897106550168, 3631718.999459290876985 ], [ 380550.651789326919243, 3631714.213273714762181 ], [ 380553.26243600458838, 3631710.587375552393496 ], [ 380553.697543784393929, 3631706.236297755967826 ], [ 380543.545028927561361, 3631706.12752081034705 ], [ 380527.808630900806747, 3631705.076010343618691 ], [ 380522.877409399079625, 3631705.221046269871294 ], [ 380513.667628064460587, 3631706.236297757830471 ], [ 380510.041729902091902, 3631706.308815719094127 ], [ 380502.499861721356865, 3631715.083489274606109 ], [ 380493.797706130892038, 3631717.259028172120452 ], [ 380485.313104429165833, 3631718.346797619014978 ], [ 380486.618427768466063, 3631730.421038503758609 ], [ 380488.830225647776388, 3631739.050676132086664 ], [ 380485.168068503204267, 3631745.75858773291111 ], [ 380482.738716733991168, 3631756.164915461558849 ], [ 380483.065047569281887, 3631764.613258181139827 ], [ 380481.759724230563734, 3631771.5387236722745 ], [ 380490.244325931300409, 3631781.800015472341329 ], [ 380507.938708967529237, 3631776.143614339642227 ], [ 380528.243738680379465, 3631766.716279115062207 ], [ 380551.449486924626399, 3631752.067650537006557 ], [ 380558.628765286237467, 3631741.044920121785253 ] ] ] ] } },
{ "type": "Feature", "properties": { "id": null, "label": "zoi_2_2" }, "geometry": { "type": "MultiPolygon", "coordinates": [ [ [ [ 380532.15970869717421, 3631791.517422551289201 ], [ 380535.205463153019082, 3631784.265626224689186 ], [ 380541.296972067037132, 3631775.128362853545696 ], [ 380547.098409128084313, 3631772.372680250555277 ], [ 380554.06013360072393, 3631768.021602454129606 ], [ 380558.266175469849259, 3631765.120883924420923 ], [ 380570.449193298001774, 3631755.258440918289125 ], [ 380579.296384815825149, 3631745.105926063843071 ], [ 380580.601708154426888, 3631732.19772860314697 ], [ 380582.632211124757305, 3631724.9459322784096 ], [ 380553.702076157263946, 3631706.234031569212675 ], [ 380553.307759731193073, 3631710.553382754791528 ], [ 380550.676717377733439, 3631714.183813290670514 ], [ 380551.084630921599455, 3631718.997193101327866 ], [ 380556.958585944841616, 3631720.771617015358061 ], [ 380560.670599189586937, 3631724.504025937523693 ], [ 380558.63103147369111, 3631740.9939309284091 ], [ 380551.472148786764592, 3631752.007596597075462 ], [ 380528.251670330180787, 3631766.66189064597711 ], [ 380507.937575871124864, 3631776.145880527794361 ], [ 380490.591052441508509, 3631781.713900396134704 ], [ 380493.466842922032811, 3631784.773251971695572 ], [ 380532.15970869717421, 3631791.517422551289201 ] ] ] ] } },
{ "type": "Feature", "properties": { "id": null, "label": "zoi_2_4" }, "geometry": { "type": "MultiPolygon", "coordinates": [ [ [ [ 380581.147859063930809, 3631803.068174390122294 ], [ 380581.056078518915456, 3631813.33612311584875 ], [ 380619.190895902283955, 3631803.768001062329859 ], [ 380642.181922989489976, 3631795.668367767706513 ], [ 380655.581882888043765, 3631784.195799360983074 ], [ 380661.455837912391871, 3631769.969814535696059 ], [ 380637.898830783902667, 3631733.165815086569637 ], [ 380617.370581716182642, 3631748.978838542941958 ], [ 380598.035479760612361, 3631773.208903017453849 ], [ 380591.182532231789082, 3631784.467316814698279 ], [ 380585.063829081656877, 3631796.949471239931881 ], [ 380581.147859063930809, 3631803.068174390122294 ] ] ] ] } },
{ "type": "Feature", "properties": { "id": null, "label": "zoi_2_3" }, "geometry": { "type": "MultiPolygon", "coordinates": [ [ [ [ 380532.157123826444149, 3631791.510995789431036 ], [ 380581.225881491729524, 3631813.393799657002091 ], [ 380581.161348293477204, 3631803.036221492569894 ], [ 380585.130139927437995, 3631796.905567751731724 ], [ 380591.180127173603978, 3631784.474860623478889 ], [ 380599.198376936896238, 3631771.818287306465209 ], [ 380617.396738573443145, 3631748.844469073694199 ], [ 380637.898800906026736, 3631733.165859899483621 ], [ 380582.634990744816605, 3631724.947153894696385 ], [ 380580.621554989833385, 3631732.140454286243767 ], [ 380579.29647333821049, 3631745.098720300476998 ], [ 380570.468331949436106, 3631755.21752563631162 ], [ 380558.439343975216616, 3631765.009362772572786 ], [ 380541.316535628866404, 3631775.110959254205227 ], [ 380535.224601805151906, 3631784.266068842727691 ], [ 380532.157123826444149, 3631791.510995789431036 ] ] ] ] } },
{ "type": "Feature", "properties": { "id": null, "label": "zoi_1_1" }, "geometry": { "type": "MultiPolygon", "coordinates": [ [ [ [ 380354.327159826469142, 3631586.398278196342289 ], [ 380344.227714449632913, 3631571.652442614547908 ], [ 380321.963761386694387, 3631580.945223025046289 ], [ 380299.344875737209804, 3631593.400130101945251 ], [ 380287.922499816108029, 3631603.176909491885453 ], [ 380297.860612199117895, 3631604.144907450303435 ], [ 380300.474206689046696, 3631610.243294593412429 ], [ 380294.666218933125492, 3631620.310473371762782 ], [ 380292.020357844885439, 3631628.570722625590861 ], [ 380289.632629545812961, 3631640.573897320777178 ], [ 380281.759579475445207, 3631646.059219089802355 ], [ 380277.564921651501209, 3631644.704021946527064 ], [ 380271.176135120680556, 3631640.186698136851192 ], [ 380268.46574083447922, 3631645.736553103197366 ], [ 380264.303349609428551, 3631650.608809498604387 ], [ 380256.623899131605867, 3631659.837056711316109 ], [ 380241.974863347131759, 3631670.355967869050801 ], [ 380238.00607171485899, 3631684.230605286546052 ], [ 380243.781792873051018, 3631706.042825969401747 ], [ 380243.136460900306702, 3631714.174008827656507 ], [ 380246.814853144343942, 3631720.046529781073332 ], [ 380247.556984913477208, 3631726.499849510844797 ], [ 380259.8505589964916, 3631736.470228490885347 ], [ 380262.464153486886062, 3631741.858750466722995 ], [ 380271.369734711945057, 3631746.505140669178218 ], [ 380284.340907367761247, 3631752.893927202560008 ], [ 380292.472090225375723, 3631759.282713732216507 ], [ 380299.828874716535211, 3631769.349892510101199 ], [ 380307.572858389292378, 3631781.353067203890532 ], [ 380323.060825740161818, 3631794.517839452251792 ], [ 380323.254425331484526, 3631779.804270470980555 ], [ 380318.995234310801607, 3631769.349892509635538 ], [ 380317.05923839204479, 3631760.057112099602818 ], [ 380321.415229209058452, 3631750.764331690501422 ], [ 380320.0600320660742, 3631739.43875556346029 ], [ 380310.960851249052212, 3631717.271602297201753 ], [ 380304.572064717474859, 3631698.686041479930282 ], [ 380303.235078346624505, 3631692.641971776261926 ], [ 380297.6818992132321, 3631699.510836133733392 ], [ 380291.407292470277753, 3631707.204423519317061 ], [ 380283.276109612022992, 3631709.334019031375647 ], [ 380283.856908388785087, 3631700.42843780759722 ], [ 380283.856908387038857, 3631691.716456171125174 ], [ 380281.727312877541408, 3631677.777285558637232 ], [ 380286.760902265203185, 3631675.64769004797563 ], [ 380290.826493694388773, 3631666.354909639339894 ], [ 380295.860083082981873, 3631662.870116984471679 ], [ 380299.18346491002012, 3631665.979741421062499 ], [ 380299.168942998046987, 3631665.776434653438628 ], [ 380297.989678593410645, 3631653.770936165936291 ], [ 380303.023267982294783, 3631649.511745144613087 ], [ 380320.245565008255653, 3631642.937425671610981 ], [ 380330.708009618450888, 3631632.862180244643241 ], [ 380330.90160921093775, 3631607.113434525206685 ], [ 380336.128798192483373, 3631598.788652075920254 ], [ 380354.327159826469142, 3631586.398278196342289 ] ] ] ] } },
{ "type": "Feature", "properties": { "id": null, "label": "zoi_1_2" }, "geometry": { "type": "MultiPolygon", "coordinates": [ [ [ [ 380271.095468624087516, 3631640.130231589544564 ], [ 380277.460055206844117, 3631644.679821998346597 ], [ 380281.79184607451316, 3631646.035019140224904 ], [ 380289.705229391809553, 3631640.565830669831485 ], [ 380292.149424238712527, 3631627.570458065718412 ], [ 380295.15021791314939, 3631619.729674596339464 ], [ 380300.667806281067897, 3631610.243294594809413 ], [ 380297.957411995332222, 3631604.14490745216608 ], [ 380288.180632606090512, 3631603.176909491885453 ], [ 380285.083039134740829, 3631615.954482554923743 ], [ 380279.178251583769452, 3631621.568870718125254 ], [ 380271.095468624087516, 3631640.130231589544564 ] ] ] ] } },
{ "type": "Feature", "properties": { "id": null, "label": "zoi_1_3" }, "geometry": { "type": "MultiPolygon", "coordinates": [ [ [ [ 380295.924616280419286, 3631662.902383583132178 ], [ 380290.842626994242892, 3631666.33877633837983 ], [ 380286.728635667124763, 3631675.679956645704806 ], [ 380281.84024597221287, 3631677.761152258142829 ], [ 380283.84884173842147, 3631691.772922720760107 ], [ 380283.873041686369106, 3631700.775303742382675 ], [ 380283.292242911062203, 3631709.317885732743889 ], [ 380291.423425770190079, 3631707.236690120771527 ], [ 380303.235078346391674, 3631692.639067393261939 ], [ 380299.966007760493085, 3631675.704156594816595 ], [ 380299.180560527660418, 3631665.98046751646325 ], [ 380295.924616280419286, 3631662.902383583132178 ] ] ] ] } },
{ "type": "Feature", "properties": { "id": null, "label": "zoi_1_4" }, "geometry": { "type": "MultiPolygon", "coordinates": [ [ [ [ 380298.175211536115967, 3631653.779002817347646 ], [ 380299.909560507978313, 3631674.77711568493396 ], [ 380300.374261690652929, 3631677.809290902223438 ], [ 380304.346198526211083, 3631698.754608002025634 ], [ 380306.687543589854613, 3631704.96189491590485 ], [ 380310.662385211326182, 3631716.233021155465394 ], [ 380320.059527901234105, 3631739.428672253619879 ], [ 380321.425312521925662, 3631750.754248377867043 ], [ 380317.196371437516063, 3631759.992578901816159 ], [ 380318.975067687220871, 3631769.430559006985277 ], [ 380323.258458657306619, 3631779.81233711913228 ], [ 380323.11325896368362, 3631794.586405973415822 ], [ 380393.063211498898454, 3631796.183602606877685 ], [ 380371.791456342791207, 3631774.331048674881458 ], [ 380361.445978153031319, 3631744.456211655400693 ], [ 380367.435465525777545, 3631727.141148157417774 ], [ 380388.779820528929122, 3631693.382219324819744 ], [ 380421.558651426690631, 3631670.404367767740041 ], [ 380494.775597074651159, 3631646.373818427789956 ], [ 380504.213577178423293, 3631645.938219347968698 ], [ 380418.255358389928006, 3631638.097435874398798 ], [ 380384.569029405538458, 3631643.034225468989462 ], [ 380366.854666750296019, 3631637.51663709897548 ], [ 380361.095078892423771, 3631614.187886280938983 ], [ 380354.319093176280148, 3631586.406344847287983 ], [ 380336.120731541072018, 3631598.603119135368615 ], [ 380330.990342356963083, 3631606.927901585586369 ], [ 380330.89354256138904, 3631632.579847508110106 ], [ 380320.439164600335062, 3631643.034225468058139 ], [ 380303.015201332396828, 3631649.326212203595787 ], [ 380298.175211536115967, 3631653.779002817347646 ] ] ] ] } }
]
}
